start=new Date('2021-12-12T00:00:00.000Z').valueOf();
sats=[{"NORAD_CAT_ID":"47822","COUNTRY_CODE":"US","OBJECT_TYPE":"PAYLOAD","SITE":"AFETR","LAUNCH_DATE":"2021-03-11","RA_OF_ASC_NODE":"14.9249","CLASSIFICATION_TYPE":"U","MEAN_MOTION":"15.06399841","ELEMENT_SET_NO":"999","CENTER_NAME":"EARTH","OBJECT_ID":"2021-018AM","MEAN_ANOMALY":"298.3582","DECAY_DATE":null,"APOAPSIS":"548.355","SEMIMAJOR_AXIS":"6925.349","PERIOD":"95.592","MEAN_MOTION_DDOT":"0.0000000000000","REF_FRAME":"TEME","TLE_LINE1":"1 47822U 21018AM  21345.78341339 -.00000632  00000-0 -23528-4 0  9995","OBJECT_NAME":"STARLINK-2407","PERIAPSIS":"546.073","ARG_OF_PERICENTER":"61.7573","RCS_SIZE":"LARGE","INCLINATION":"53.0566","MEAN_MOTION_DOT":"-0.00000632","REV_AT_EPOCH":"4300","TLE_LINE2":"2 47822  53.0566  14.9249 0001648  61.7573 298.3582 15.06399841 43007","ECCENTRICITY":"0.00016480","TIME_SYSTEM":"UTC","MEAN_ELEMENT_THEORY":"SGP4","BSTAR":"-0.00002352800000","EPOCH":"2021-12-11T18:48:06.916896","EPHEMERIS_TYPE":"0","FILE":"3237650","GP_ID":"191522649"},{"ELEMENT_SET_NO":"999","MEAN_MOTION":"15.06397347","CENTER_NAME":"EARTH","OBJECT_ID":"2021-018AN","MEAN_ANOMALY":"302.0444","DECAY_DATE":null,"APOAPSIS":"548.454","SEMIMAJOR_AXIS":"6925.357","NORAD_CAT_ID":"47823","COUNTRY_CODE":"US","OBJECT_TYPE":"PAYLOAD","SITE":"AFETR","LAUNCH_DATE":"2021-03-11","RA_OF_ASC_NODE":"4.8637","CLASSIFICATION_TYPE":"U","MEAN_MOTION_DOT":"0.00001103","REV_AT_EPOCH":"4314","TLE_LINE2":"2 47823  53.0569   4.8637 0001779  58.0718 302.0444 15.06397347 43149","ECCENTRICITY":"0.00017790","TIME_SYSTEM":"UTC","MEAN_ELEMENT_THEORY":"SGP4","BSTAR":"0.00009292300000","EPOCH":"2021-12-11T19:10:40.750464","FILE":"3237650","EPHEMERIS_TYPE":"0","GP_ID":"191521890","PERIOD":"95.592","MEAN_MOTION_DDOT":"0.0000000000000","REF_FRAME":"TEME","TLE_LINE1":"1 47823U 21018AN  21345.79908276  .00001103  00000-0  92923-4 0  9993","OBJECT_NAME":"STARLINK-2408","PERIAPSIS":"545.990","ARG_OF_PERICENTER":"58.0718","RCS_SIZE":"LARGE","INCLINATION":"53.0569"},{"NORAD_CAT_ID":"47824","COUNTRY_CODE":"US","OBJECT_TYPE":"PAYLOAD","SITE":"AFETR","LAUNCH_DATE":"2021-03-11","RA_OF_ASC_NODE":"4.9169","CLASSIFICATION_TYPE":"U","OBJECT_ID":"2021-018AP","CENTER_NAME":"EARTH","MEAN_MOTION":"15.06395033","ELEMENT_SET_NO":"999","MEAN_ANOMALY":"301.0239","SEMIMAJOR_AXIS":"6925.364","DECAY_DATE":null,"APOAPSIS":"548.434","REF_FRAME":"TEME","PERIOD":"95.592","MEAN_MOTION_DDOT":"0.0000000000000","TLE_LINE1":"1 47824U 21018AP  21345.78802633  .00001204  00000-0  99745-4 0  9994","PERIAPSIS":"546.024","OBJECT_NAME":"STARLINK-2409","INCLINATION":"53.0553","ARG_OF_PERICENTER":"59.0920","RCS_SIZE":"LARGE","REV_AT_EPOCH":"4313","MEAN_MOTION_DOT":"0.00001204","TIME_SYSTEM":"UTC","BSTAR":"0.00009974500000","MEAN_ELEMENT_THEORY":"SGP4","TLE_LINE2":"2 47824  53.0553   4.9169 0001740  59.0920 301.0239 15.06395033 43138","ECCENTRICITY":"0.00017400","EPOCH":"2021-12-11T18:54:45.474912","EPHEMERIS_TYPE":"0","FILE":"3237650","GP_ID":"191522140"},{"CENTER_NAME":"EARTH","OBJECT_ID":"2021-018AQ","ELEMENT_SET_NO":"999","MEAN_MOTION":"15.06397885","MEAN_ANOMALY":"291.3429","SEMIMAJOR_AXIS":"6925.355","APOAPSIS":"548.266","DECAY_DATE":null,"NORAD_CAT_ID":"47825","OBJECT_TYPE":"PAYLOAD","COUNTRY_CODE":"US","LAUNCH_DATE":"2021-03-11","SITE":"AFETR","CLASSIFICATION_TYPE":"U","RA_OF_ASC_NODE":"6.3065","REV_AT_EPOCH":"4309","MEAN_MOTION_DOT":"-0.00000520","BSTAR":"-0.00001603900000","MEAN_ELEMENT_THEORY":"SGP4","TIME_SYSTEM":"UTC","ECCENTRICITY":"0.00015100","TLE_LINE2":"2 47825  53.0574   6.3065 0001510  68.7721 291.3429 15.06397885 43098","FILE":"3237453","EPHEMERIS_TYPE":"0","EPOCH":"2021-12-11T11:23:35.744064","GP_ID":"191493160","REF_FRAME":"TEME","MEAN_MOTION_DDOT":"0.0000000000000","PERIOD":"95.592","TLE_LINE1":"1 47825U 21018AQ  21345.47471926 -.00000520  00000-0 -16039-4 0  9995","PERIAPSIS":"546.174","OBJECT_NAME":"STARLINK-2410","INCLINATION":"53.0574","RCS_SIZE":"LARGE","ARG_OF_PERICENTER":"68.7721"},{"OBJECT_ID":"2021-018AR","CENTER_NAME":"EARTH","MEAN_MOTION":"15.06401187","ELEMENT_SET_NO":"999","MEAN_ANOMALY":"302.4681","SEMIMAJOR_AXIS":"6925.345","DECAY_DATE":null,"APOAPSIS":"548.381","NORAD_CAT_ID":"47826","COUNTRY_CODE":"US","OBJECT_TYPE":"PAYLOAD","SITE":"AFETR","LAUNCH_DATE":"2021-03-11","RA_OF_ASC_NODE":"6.3369","CLASSIFICATION_TYPE":"U","REV_AT_EPOCH":"4309","MEAN_MOTION_DOT":"0.00000965","TIME_SYSTEM":"UTC","MEAN_ELEMENT_THEORY":"SGP4","BSTAR":"0.00008364600000","TLE_LINE2":"2 47826  53.0568   6.3369 0001691  57.6471 302.4681 15.06401187 43093","ECCENTRICITY":"0.00016910","EPOCH":"2021-12-11T11:18:17.112096","EPHEMERIS_TYPE":"0","FILE":"3237453","GP_ID":"191493410","REF_FRAME":"TEME","PERIOD":"95.592","MEAN_MOTION_DDOT":"0.0000000000000","TLE_LINE1":"1 47826U 21018AR  21345.47103139  .00000965  00000-0  83646-4 0  9993","PERIAPSIS":"546.039","OBJECT_NAME":"STARLINK-2411","INCLINATION":"53.0568","ARG_OF_PERICENTER":"57.6471","RCS_SIZE":"LARGE"},{"MEAN_MOTION":"15.06406140","ELEMENT_SET_NO":"999","CENTER_NAME":"EARTH","OBJECT_ID":"2021-018AS","MEAN_ANOMALY":"298.1553","DECAY_DATE":null,"APOAPSIS":"548.456","SEMIMAJOR_AXIS":"6925.330","NORAD_CAT_ID":"47827","COUNTRY_CODE":"US","OBJECT_TYPE":"PAYLOAD","SITE":"AFETR","LAUNCH_DATE":"2021-03-11","RA_OF_ASC_NODE":"355.0336","CLASSIFICATION_TYPE":"U","MEAN_MOTION_DOT":"0.00001375","REV_AT_EPOCH":"4333","TLE_LINE2":"2 47827  53.0562 355.0336 0001821  61.9620 298.1553 15.06406140 43335","ECCENTRICITY":"0.00018210","TIME_SYSTEM":"UTC","MEAN_ELEMENT_THEORY":"SGP4","BSTAR":"0.00011115000000","EPOCH":"2021-12-11T18:17:33.353376","EPHEMERIS_TYPE":"0","FILE":"3237650","GP_ID":"191521398","PERIOD":"95.592","MEAN_MOTION_DDOT":"0.0000000000000","REF_FRAME":"TEME","TLE_LINE1":"1 47827U 21018AS  21345.76219159  .00001375  00000-0  11115-3 0  9993","OBJECT_NAME":"STARLINK-2413","PERIAPSIS":"545.934","ARG_OF_PERICENTER":"61.9620","RCS_SIZE":"LARGE","INCLINATION":"53.0562"},{"RA_OF_ASC_NODE":"16.1074","CLASSIFICATION_TYPE":"U","SITE":"AFETR","LAUNCH_DATE":"2021-03-11","COUNTRY_CODE":"US","OBJECT_TYPE":"PAYLOAD","NORAD_CAT_ID":"47828","DECAY_DATE":null,"APOAPSIS":"548.397","SEMIMAJOR_AXIS":"6925.369","MEAN_ANOMALY":"296.8966","ELEMENT_SET_NO":"999","MEAN_MOTION":"15.06393467","OBJECT_ID":"2021-018AT","CENTER_NAME":"EARTH","ARG_OF_PERICENTER":"63.2195","RCS_SIZE":"LARGE","INCLINATION":"53.0573","OBJECT_NAME":"STARLINK-2415","PERIAPSIS":"546.070","TLE_LINE1":"1 47828U 21018AT  21345.52171185 -.00001051  00000-0 -51659-4 0  9995","PERIOD":"95.593","MEAN_MOTION_DDOT":"0.0000000000000","REF_FRAME":"TEME","GP_ID":"191493913","EPOCH":"2021-12-11T12:31:15.903840","EPHEMERIS_TYPE":"0","FILE":"3237453","TLE_LINE2":"2 47828  53.0573  16.1074 0001680  63.2195 296.8966 15.06393467 42965","ECCENTRICITY":"0.00016800","TIME_SYSTEM":"UTC","MEAN_ELEMENT_THEORY":"SGP4","BSTAR":"-0.00005165900000","REV_AT_EPOCH":"4296","MEAN_MOTION_DOT":"-0.00001051"},{"OBJECT_ID":"2021-018AU","CENTER_NAME":"EARTH","MEAN_MOTION":"15.06396664","ELEMENT_SET_NO":"999","MEAN_ANOMALY":"294.9915","SEMIMAJOR_AXIS":"6925.359","DECAY_DATE":null,"APOAPSIS":"548.310","NORAD_CAT_ID":"47829","COUNTRY_CODE":"US","OBJECT_TYPE":"PAYLOAD","SITE":"AFETR","LAUNCH_DATE":"2021-03-11","RA_OF_ASC_NODE":"14.8362","CLASSIFICATION_TYPE":"U","REV_AT_EPOCH":"4299","MEAN_MOTION_DOT":"0.00001173","TIME_SYSTEM":"UTC","BSTAR":"0.00009764800000","MEAN_ELEMENT_THEORY":"SGP4","TLE_LINE2":"2 47829  53.0568  14.8362 0001568  65.1237 294.9915 15.06396664 42996","ECCENTRICITY":"0.00015680","EPOCH":"2021-12-11T19:19:57.799776","FILE":"3237650","EPHEMERIS_TYPE":"0","GP_ID":"191522892","REF_FRAME":"TEME","PERIOD":"95.592","MEAN_MOTION_DDOT":"0.0000000000000","TLE_LINE1":"1 47829U 21018AU  21345.80553009  .00001173  00000-0  97648-4 0  9997","PERIAPSIS":"546.138","OBJECT_NAME":"STARLINK-2416","INCLINATION":"53.0568","ARG_OF_PERICENTER":"65.1237","RCS_SIZE":"MEDIUM"},{"LAUNCH_DATE":"2021-03-11","SITE":"AFETR","CLASSIFICATION_TYPE":"U","RA_OF_ASC_NODE":"14.8540","NORAD_CAT_ID":"47830","OBJECT_TYPE":"PAYLOAD","COUNTRY_CODE":"US","MEAN_ANOMALY":"297.8743","APOAPSIS":"548.201","DECAY_DATE":null,"SEMIMAJOR_AXIS":"6925.354","ELEMENT_SET_NO":"999","MEAN_MOTION":"15.06398355","CENTER_NAME":"EARTH","OBJECT_ID":"2021-018AV","OBJECT_NAME":"STARLINK-2419","PERIAPSIS":"546.236","RCS_SIZE":"MEDIUM","ARG_OF_PERICENTER":"62.2390","INCLINATION":"53.0557","MEAN_MOTION_DDOT":"0.0000000000000","PERIOD":"95.592","REF_FRAME":"TEME","TLE_LINE1":"1 47830U 21018AV  21345.80183333  .00000959  00000-0  83239-4 0  9990","FILE":"3237650","EPHEMERIS_TYPE":"0","EPOCH":"2021-12-11T19:14:38.399712","GP_ID":"191522650","MEAN_MOTION_DOT":"0.00000959","REV_AT_EPOCH":"4299","ECCENTRICITY":"0.00014190","TLE_LINE2":"2 47830  53.0557  14.8540 0001419  62.2390 297.8743 15.06398355 42997","MEAN_ELEMENT_THEORY":"SGP4","BSTAR":"0.00008323900000","TIME_SYSTEM":"UTC"},{"OBJECT_NAME":"STARLINK-2420","PERIAPSIS":"546.064","RCS_SIZE":"LARGE","ARG_OF_PERICENTER":"56.5969","INCLINATION":"53.0556","MEAN_MOTION_DDOT":"0.0000000000000","PERIOD":"95.593","REF_FRAME":"TEME","TLE_LINE1":"1 47831U 21018AW  21345.73596281 -.00000893  00000-0 -41091-4 0  9992","FILE":"3237650","EPHEMERIS_TYPE":"0","EPOCH":"2021-12-11T17:39:47.186784","GP_ID":"191521891","REV_AT_EPOCH":"4339","MEAN_MOTION_DOT":"-0.00000893","ECCENTRICITY":"0.00016890","TLE_LINE2":"2 47831  53.0556 350.0632 0001689  56.5969 303.5182 15.06393272 43391","BSTAR":"-0.00004109100000","MEAN_ELEMENT_THEORY":"SGP4","TIME_SYSTEM":"UTC","LAUNCH_DATE":"2021-03-11","SITE":"AFETR","CLASSIFICATION_TYPE":"U","RA_OF_ASC_NODE":"350.0632","NORAD_CAT_ID":"47831","OBJECT_TYPE":"PAYLOAD","COUNTRY_CODE":"US","MEAN_ANOMALY":"303.5182","APOAPSIS":"548.404","DECAY_DATE":null,"SEMIMAJOR_AXIS":"6925.369","MEAN_MOTION":"15.06393272","ELEMENT_SET_NO":"999","CENTER_NAME":"EARTH","OBJECT_ID":"2021-018AW"}];
